OBJECT_NAME,OBJECT_ID,EPOCH,MEAN_MOTION,ECCENTRICITY,INCLINATION,RA_OF_ASC_NODE,ARG_OF_PERICENTER,MEAN_ANOMALY,EPHEMERIS_TYPE,CLASSIFICATION_TYPE,NORAD_CAT_ID,ELEMENT_SET_NO,REV_AT_EPOCH,BSTAR,MEAN_MOTION_DOT,MEAN_MOTION_DDOT
CUBEBUG-2 (LO-74),2013-066AA,2026-07-18T06:37:36.914880,14.93979591,.00555884,97.8920,148.3935,284.9361,74.5708,0,U,39440,999,68163,.18626111E-3,.1982E-4,0
FUNCUBE-1 (AO-73),2013-066AE,2026-07-17T21:03:23.146272,15.09839207,.00379436,97.8295,170.9747,98.9940,261.5586,0,U,39444,999,68429,.2737156E-3,.4433E-4,0
UWE-3,2013-066AG,2026-07-17T19:50:06.876672,14.97209607,.0047603,97.8719,155.1139,215.4548,144.3506,0,U,39446,999,68216,.17707243E-3,.2032E-4,0
UNISAT-6,2014-033C,2026-07-17T23:48:59.507424,14.88372781,.00439613,97.7913,351.1705,328.3803,31.4773,0,U,40012,999,65074,.1157376E-3,.1033E-4,0
DUCHIFAT-1,2014-033M,2026-07-18T03:55:10.668288,15.71597676,.00032592,98.0423,262.8485,233.3410,126.7552,0,U,40021,999,66060,.72542299E-3,.93801E-3,0
QB50P1,2014-033R,2026-07-18T07:39:18.658080,15.18693321,.0010487,98.0968,212.6585,115.5699,244.6619,0,U,40025,999,65775,.21985551E-3,.4488E-4,0
LILACSAT-2,2015-049K,2026-07-18T06:51:22.476384,15.52428039,.00085347,97.4622,237.3254,132.5347,227.6627,0,U,40908,999,60057,.17593553E-3,.10662E-3,0
FOX-1A (AO-85),2015-058D,2026-07-18T04:55:58.226592,14.91099060,.01326085,64.7726,182.5769,44.6692,316.5010,0,U,40967,999,11819,.15522007E-3,.1643E-4,0
CAS-2T & KS-1Q,2016-066G,2026-07-18T03:05:52.144800,14.44773560,.03421029,98.3813,274.5113,35.8714,326.4933,0,U,41847,999,50926,.71656437E-4,.45E-5,0
RADFXSAT (FOX-1B),2017-073E,2026-07-18T02:16:53.145120,15.13085241,.01483451,97.4663,65.6800,221.3591,137.6333,0,U,43017,999,47006,.1627423E-3,.3698E-4,0
DIWATA-2B,2018-084H,2026-07-18T07:28:51.014784,15.00569811,.00126667,98.1211,36.8830,74.7914,285.4708,0,U,43678,999,42088,.84859963E-4,.1007E-4,0
ES'HAIL 2,2018-090A,2026-07-18T06:30:16.223040,1.00272741,.00023438,0.0154,75.2310,83.0419,261.1492,0,U,43700,999,2798,0,.136E-5,0
FOX-1CLIFF (AO-95),2018-099N,2026-07-18T03:19:05.980224,15.27309721,.00074754,97.4363,259.2809,227.7066,132.3540,0,U,43770,999,41794,.22607484E-3,.5977E-4,0
ITASAT,2018-099AE,2026-07-18T02:37:52.300704,15.19401477,.00110273,97.4007,250.0086,238.8807,121.1347,0,U,43786,999,41760,.15726543E-3,.3265E-4,0
JY1SAT (JO-97),2018-099AX,2026-07-18T03:25:52.114656,15.34577339,.00070997,97.4106,262.1024,149.2378,210.9282,0,U,43803,999,41837,.28599386E-3,.9509E-4,0
UWE-4,2018-111E,2026-07-18T06:16:27.391296,15.47940806,.0006584,97.5839,129.1275,182.8842,177.2370,0,U,43880,999,41558,.36001636E-3,.18713E-3,0
TIANYAN 01,2019-093C,2026-07-18T06:39:16.399296,14.86561891,.00132807,97.7517,270.7495,351.1006,8.9973,0,U,44881,999,35603,.4185143E-4,.318E-5,0
RS-44 & BREEZE-KM R/B,2019-096E,2026-07-18T06:39:26.623008,12.79748927,.02184786,82.5244,319.0467,71.8258,290.6496,0,U,44909,999,30632,.34367692E-4,.21E-6,0
SALSAT,2020-068K,2026-07-18T00:21:03.770208,15.30195257,.00094957,97.8861,203.9671,182.8082,177.3106,0,U,46495,999,32007,.14176866E-3,.4061E-4,0
XW-3 (CAS-9),2021-131B,2026-07-18T07:01:49.557216,14.41383196,.00043707,98.4990,291.5148,22.6882,337.4499,0,U,50466,999,23959,.80559769E-4,.217E-5,0
GREENCUBE (IO-117),2022-080E,2026-07-17T05:19:51.690720,6.42583336,.0009072,70.1407,287.8015,282.9900,76.9746,0,U,53109,999,9399,0,-.3E-7,0
UMKA 1 (RS40S),2023-091G,2026-07-18T06:39:49.750560,15.21140293,.00127288,97.5030,257.8591,19.1570,341.0141,0,U,57172,999,16873,.13448283E-3,.2929E-4,0
CUBESX-HSE 3 (RS42S),2023-091N,2026-07-18T04:58:18.091776,15.31927309,.00093423,97.5070,265.2000,350.9253,9.1818,0,U,57178,999,16917,.22813287E-3,.6961E-4,0
MONITOR-3 (RS58S),2023-091Q,2026-07-18T07:14:20.288544,15.28406416,.00106597,97.5062,262.9860,358.5630,1.5577,0,U,57180,999,16904,.18375221E-3,.5012E-4,0
MONITOR-4 (RS57S),2023-091S,2026-07-18T06:41:40.783200,15.28493473,.00106759,97.5056,262.9360,359.0382,1.0835,0,U,57182,999,16904,.18988416E-3,.5196E-4,0
MONITOR-2 (RS39S),2023-091U,2026-07-18T06:32:45.353760,15.19169578,.00110856,97.5052,257.3570,13.6729,346.4804,0,U,57184,999,16867,.10987573E-3,.2244E-4,0
SVYATOBOR 1 (RS60S),2023-091X,2026-07-18T06:06:01.470816,15.27091556,.00084245,97.5069,263.2509,353.5378,6.5751,0,U,57187,999,16905,.17301472E-3,.4525E-4,0
VIZARD-METEO (RS38S),2023-091Z,2026-07-18T05:05:22.322688,15.36930363,.00054142,97.5071,269.3378,326.7967,33.2936,0,U,57189,999,16945,.25103734E-3,.8986E-4,0
POLYTECH-UNIVERSE 3 (RS46S),2023-091AB,2026-07-18T07:05:48.356448,15.19382707,.00157737,97.5027,256.8841,27.4142,332.7921,0,U,57191,999,16867,.12143868E-3,.2507E-4,0
UTMN 2 (RS27S),2023-091AP,2026-07-18T04:59:35.253888,15.32743949,.00064357,97.5067,266.8723,338.4220,21.6750,0,U,57203,999,16929,.22139117E-3,.6924E-4,0
