CUBEBUG-2 (LO-74)       
1 39440U 13066AA  26199.27612170  .00001982  00000+0  18626-3 0  9994
2 39440  97.8920 148.3935 0055588 284.9361  74.5708 14.93979591681636
FUNCUBE-1 (AO-73)       
1 39444U 13066AE  26198.87735123  .00004433  00000+0  27372-3 0  9999
2 39444  97.8295 170.9747 0037943  98.9940 261.5586 15.09839207684292
UWE-3                   
1 39446U 13066AG  26198.82646848  .00002032  00000+0  17707-3 0  9995
2 39446  97.8719 155.1139 0047603 215.4548 144.3506 14.97209607682164
UNISAT-6                
1 40012U 14033C   26198.99235541  .00001033  00000+0  11574-3 0  9999
2 40012  97.7913 351.1705 0043961 328.3803  31.4773 14.88372781650743
DUCHIFAT-1              
1 40021U 14033M   26199.16331792  .00093801  00000+0  72542-3 0  9990
2 40021  98.0423 262.8485 0003259 233.3410 126.7552 15.71597676660605
QB50P1                  
1 40025U 14033R   26199.31896595  .00004488  00000+0  21986-3 0  9997
2 40025  98.0968 212.6585 0010487 115.5699 244.6619 15.18693321657759
LILACSAT-2              
1 40908U 15049K   26199.28567681  .00010662  00000+0  17594-3 0  9993
2 40908  97.4622 237.3254 0008534 132.5347 227.6627 15.52428039600573
FOX-1A (AO-85)          
1 40967U 15058D   26199.20553503  .00001643  00000+0  15522-3 0  9996
2 40967  64.7726 182.5769 0132608  44.6692 316.5010 14.91099060118194
CAS-2T & KS-1Q          
1 41847U 16066G   26199.12907575  .00000450  00000+0  71656-4 0  9993
2 41847  98.3813 274.5113 0342102  35.8714 326.4933 14.44773560509264
RADFXSAT (FOX-1B)       
1 43017U 17073E   26199.09505955  .00003698  00000+0  16274-3 0  9996
2 43017  97.4663  65.6800 0148345 221.3591 137.6333 15.13085241470068
DIWATA-2B               
1 43678U 18084H   26199.31170156  .00001007  00000+0  84860-4 0  9997
2 43678  98.1211  36.8830 0012666  74.7914 285.4708 15.00569811420885
ES'HAIL 2               
1 43700U 18090A   26199.27102110  .00000136  00000+0  00000+0 0  9991
2 43700   0.0154  75.2310 0002343  83.0419 261.1492  1.00272741 27986
FOX-1CLIFF (AO-95)      
1 43770U 18099N   26199.13826366  .00005977  00000+0  22607-3 0  9997
2 43770  97.4363 259.2809 0007475 227.7066 132.3540 15.27309721417943
ITASAT                  
1 43786U 18099AE  26199.10963311  .00003265  00000+0  15727-3 0  9996
2 43786  97.4007 250.0086 0011027 238.8807 121.1347 15.19401477417601
JY1SAT (JO-97)          
1 43803U 18099AX  26199.14296429  .00009509  00000+0  28599-3 0  9997
2 43803  97.4106 262.1024 0007099 149.2378 210.9282 15.34577339418377
UWE-4                   
1 43880U 18111E   26199.26142814  .00018713  00000+0  36002-3 0  9993
2 43880  97.5839 129.1275 0006584 182.8842 177.2370 15.47940806415583
TIANYAN 01              
1 44881U 19093C   26199.27727314  .00000318  00000+0  41851-4 0  9991
2 44881  97.7517 270.7495 0013280 351.1006   8.9973 14.86561891356039
RS-44 & BREEZE-KM R/B   
1 44909U 19096E   26199.27739147  .00000021  00000+0  34368-4 0  9998
2 44909  82.5244 319.0467 0218478  71.8258 290.6496 12.79748927306320
SALSAT                  
1 46495U 20068K   26199.01462697  .00004061  00000+0  14177-3 0  9999
2 46495  97.8861 203.9671 0009495 182.8082 177.3106 15.30195257320078
XW-3 (CAS-9)            
1 50466U 21131B   26199.29293469  .00000217  00000+0  80560-4 0  9992
2 50466  98.4990 291.5148 0004370  22.6882 337.4499 14.41383196239591
GREENCUBE (IO-117)      
1 53109U 22080E   26198.22212605 -.00000003  00000+0  00000+0 0  9998
2 53109  70.1407 287.8015 0009072 282.9900  76.9746  6.42583336 93997
UMKA 1 (RS40S)          
1 57172U 23091G   26199.27765915  .00002929  00000+0  13448-3 0  9990
2 57172  97.5030 257.8591 0012728  19.1570 341.0141 15.21140293168735
CUBESX-HSE 3 (RS42S)    
1 57178U 23091N   26199.20715384  .00006961  00000+0  22813-3 0  9990
2 57178  97.5070 265.2000 0009342 350.9253   9.1818 15.31927309169179
MONITOR-3 (RS58S)       
1 57180U 23091Q   26199.30162371  .00005012  00000+0  18375-3 0  9990
2 57180  97.5062 262.9860 0010659 358.5630   1.5577 15.28406416169048
MONITOR-4 (RS57S)       
1 57182U 23091S   26199.27894425  .00005196  00000+0  18988-3 0  9993
2 57182  97.5056 262.9360 0010675 359.0382   1.0835 15.28493473169047
MONITOR-2 (RS39S)       
1 57184U 23091U   26199.27274715  .00002244  00000+0  10988-3 0  9992
2 57184  97.5052 257.3570 0011085  13.6729 346.4804 15.19169578168676
SVYATOBOR 1 (RS60S)     
1 57187U 23091X   26199.25418369  .00004525  00000+0  17301-3 0  9998
2 57187  97.5069 263.2509 0008424 353.5378   6.5751 15.27091556169051
VIZARD-METEO (RS38S)    
1 57189U 23091Z   26199.21206392  .00008986  00000+0  25104-3 0  9992
2 57189  97.5071 269.3378 0005414 326.7967  33.2936 15.36930363169453
POLYTECH-UNIVERSE 3 (R*)
1 57191U 23091AB  26199.29569857  .00002507  00000+0  12144-3 0  9994
2 57191  97.5027 256.8841 0015773  27.4142 332.7921 15.19382707168670
UTMN 2 (RS27S)          
1 57203U 23091AP  26199.20804692  .00006924  00000+0  22139-3 0  9990
2 57203  97.5067 266.8723 0006435 338.4220  21.6750 15.32743949169292
